<?xml version="1.0" encoding="UTF-8"?>
<kml xmlns="http://www.opengis.net/kml/2.2">
  <Document><Placemark><name>Butte County Fire Perimeter</name>
  <Style><LineStyle><width>3</width></LineStyle><PolyStyle><fill>0</fill></PolyStyle></Style>
  <Polygon><outerBoundaryIs><LinearRing><coordinates>
  -121.76291655,39.70254930,0
  -121.75879668,39.70677545,0
  -121.75330352,39.70994490,0
  -121.75467681,39.71522698,0
  -121.75193022,39.72050866,0
  -121.74781035,39.72262122,0
  -121.74231719,39.72578993,0
  -121.73819731,39.72790233,0
  -121.73270415,39.73107081,0
  -121.72721099,39.73529521,0
  -121.72446440,39.74057535,0
  -121.72309111,39.74585509,0
  -121.72034453,39.75113442,0
  -121.71485137,39.75641335,0
  -121.71073149,39.75958052,0
  -121.70661162,39.76274753,0
  -121.69974517,39.76591440,0
  -121.69699858,39.77119220,0
  -121.69562529,39.77646959,0
  -121.69425200,39.78174658,0
  -121.69150542,39.78702316,0
  -121.69013213,39.79229934,0
  -121.68326567,39.79440970,0
  -121.67639922,39.79124413,0
  -121.67090605,39.79335452,0
  -121.66678618,39.79863022,0
  -121.66266631,39.80390550,0
  -121.65991973,39.80918039,0
  -121.66129302,39.81445486,0
  -121.66129302,39.81867415,0
  -121.65442656,39.81867415,0
  -121.64893340,39.81656454,0
  -121.65167998,39.81129023,0
  -121.65167998,39.80601550,0
  -121.65305327,39.80074038,0
  -121.64618682,39.80074038,0
  -121.64481353,39.80601550,0
  -121.63932036,39.80707048,0
  -121.63382720,39.80601550,0
  -121.63245391,39.81129023,0
  -121.62696074,39.80918039,0
  -121.62146758,39.80707048,0
  -121.61597441,39.80496051,0
  -121.61322783,39.80918039,0
  -121.61322783,39.81445486,0
  -121.60773467,39.81761936,0
  -121.60086821,39.81761936,0
  -121.59400176,39.82078370,0
  -121.58713530,39.82183845,0
  -121.58576201,39.82711196,0
  -121.58301543,39.83238506,0
  -121.58576201,39.83765776,0
  -121.58164214,39.84293005,0
  -121.57752227,39.84398446,0
  -121.57202910,39.84820194,0
  -121.56653594,39.85347342,0
  -121.55966948,39.85558190,0
  -121.55692290,39.86085281,0
  -121.55554961,39.86612332,0
  -121.55829619,39.87139343,0
  -121.56378936,39.87560922,0
  -121.56928252,39.87982476,0
  -121.56790923,39.88509381,0
  -121.56790923,39.89036246,0
  -121.56378936,39.89457709,0
  -121.55829619,39.89773789,0
  -121.55142974,39.89879145,0
  -121.54868315,39.89457709,0
  -121.54456328,39.88930876,0
  -121.53907012,39.88720132,0
  -121.53357695,39.88720132,0
  -121.52808379,39.88825505,0
  -121.52808379,39.89352345,0
  -121.52396392,39.89352345,0
  -121.52396392,39.88825505,0
  -121.52396392,39.88298624,0
  -121.51709746,39.87982476,0
  -121.51023101,39.87982476,0
  -121.50336455,39.88404003,0
  -121.50199126,39.88930876,0
  -121.49649810,39.89141614,0
  -121.49100493,39.88825505,0
  -121.48688506,39.88298624,0
  -121.48551177,39.87771702,0
  -121.48413848,39.87244740,0
  -121.48413848,39.86717738,0
  -121.48825835,39.86190695,0
  -121.48825835,39.85663611,0
  -121.48276519,39.85347342,0
  -121.48276519,39.84820194,0
  -121.48001860,39.84293005,0
  -121.48139189,39.83765776,0
  -121.47864531,39.83238506,0
  -121.47177886,39.82816661,0
  -121.46491240,39.83027587,0
  -121.45804595,39.83554873,0
  -121.45117949,39.83554873,0
  -121.44705962,39.83871225,0
  -121.44705962,39.84398446,0
  -121.44431304,39.84714759,0
  -121.43744658,39.84820194,0
  -121.43470000,39.85347342,0
  -121.42920684,39.85241915,0
  -121.42508696,39.85663611,0
  -121.42371367,39.86190695,0
  -121.42096709,39.86717738,0
  -121.41410063,39.86928544,0
  -121.40860747,39.87139343,0
  -121.40174102,39.86928544,0
  -121.39762114,39.86612332,0
  -121.39075469,39.86506925,0
  -121.38388823,39.86717738,0
  -121.37839507,39.86928544,0
  -121.37427520,39.86506925,0
  -121.37015532,39.86190695,0
  -121.37015532,39.85663611,0
  -121.37015532,39.85136487,0
  -121.36466216,39.84925626,0
  -121.35916899,39.84503885,0
  -121.35504912,39.83976672,0
  -121.35642241,39.83449419,0
  -121.35642241,39.82922125,0
  -121.35916899,39.82394790,0
  -121.35779570,39.81867415,0
  -121.35779570,39.81340000,0
  -121.36054229,39.80918039,0
  -121.36740874,39.80601550,0
  -121.37152861,39.80074038,0
  -121.37839507,39.79757511,0
  -121.37839507,39.79335452,0
  -121.37976836,39.78807843,0
  -121.38251494,39.78280193,0
  -121.38251494,39.77752502,0
  -121.37976836,39.77224771,0
  -121.37839507,39.76697000,0
  -121.37427520,39.76380317,0
  -121.37015532,39.75958052,0
  -121.36603545,39.75430183,0
  -121.36466216,39.74902274,0
  -121.36191558,39.74374324,0
  -121.35779570,39.73846334,0
  -121.36466216,39.73740732,0
  -121.36740874,39.74163133,0
  -121.37015532,39.74691099,0
  -121.37564849,39.75219024,0
  -121.38114165,39.75007859,0
  -121.38251494,39.74479918,0
  -121.38663481,39.73951936,0
  -121.38800811,39.73423913,0
  -121.38800811,39.72895851,0
  -121.39075469,39.72367747,0
  -121.38938140,39.71839604,0
  -121.39212798,39.71311420,0
  -121.39212798,39.70783195,0
  -121.39212798,39.70254930,0
  -121.39762114,39.69937952,0
  -121.40311431,39.69726625,0
  -121.39762114,39.69198279,0
  -121.39624785,39.68669892,0
  -121.40174102,39.68141466,0
  -121.40448760,39.67612998,0
  -121.40311431,39.67084491,0
  -121.40448760,39.66555943,0
  -121.40860747,39.66133075,0
  -121.41410063,39.65815907,0
  -121.41959380,39.65392994,0
  -121.42096709,39.65815907,0
  -121.41822051,39.66344512,0
  -121.41822051,39.66873076,0
  -121.42096709,39.67401600,0
  -121.41959380,39.67930083,0
  -121.42234038,39.68352841,0
  -121.42371367,39.68881252,0
  -121.43058013,39.68986929,0
  -121.43607329,39.68669892,0
  -121.43881987,39.68247154,0
  -121.44293975,39.68247154,0
  -121.44843291,39.68247154,0
  -121.45529937,39.68564210,0
  -121.45667266,39.68035775,0
  -121.45255278,39.67612998,0
  -121.45117949,39.67084491,0
  -121.44431304,39.66873076,0
  -121.43744658,39.66555943,0
  -121.43195342,39.66555943,0
  -121.42783354,39.66027354,0
  -121.42920684,39.65498725,0
  -121.43607329,39.65392994,0
  -121.44293975,39.65498725,0
  -121.44980620,39.65710182,0
  -121.45392607,39.65392994,0
  -121.44843291,39.65075793,0
  -121.44843291,39.64652835,0
  -121.44980620,39.64229851,0
  -121.45667266,39.64124101,0
  -121.46079253,39.63806841,0
  -121.45941924,39.63278042,0
  -121.45529937,39.62960743,0
  -121.44980620,39.62537656,0
  -121.44843291,39.62008760,0
  -121.45255278,39.61585614,0
  -121.45804595,39.61162443,0
  -121.46491240,39.60950847,0
  -121.47040557,39.60633442,0
  -121.47727202,39.60845047,0
  -121.47864531,39.61268238,0
  -121.48001860,39.61797190,0
  -121.48551177,39.62220323,0
  -121.48551177,39.61691403,0
  -121.48413848,39.61162443,0
  -121.48276519,39.60633442,0
  -121.48139189,39.60104401,0
  -121.48001860,39.59575319,0
  -121.48551177,39.59152025,0
  -121.49237822,39.59257851,0
  -121.49649810,39.59681139,0
  -121.49924468,39.60210212,0
  -121.50611113,39.60527637,0
  -121.51023101,39.60950847,0
  -121.51297759,39.61479824,0
  -121.51709746,39.61902976,0
  -121.52396392,39.62008760,0
  -121.53083037,39.61797190,0
  -121.53495024,39.62220323,0
  -121.53357695,39.62749203,0
  -121.52808379,39.63172277,0
  -121.52396392,39.63595326,0
  -121.52121733,39.64018349,0
  -121.51847075,39.64441346,0
  -121.52396392,39.64970056,0
  -121.51709746,39.65392994,0
  -121.51023101,39.64970056,0
  -121.50885771,39.65498725,0
  -121.51435088,39.65921631,0
  -121.51572417,39.66450228,0
  -121.51160430,39.66978784,0
  -121.50885771,39.67401600,0
  -121.50885771,39.67930083,0
  -121.51023101,39.68458526,0
  -121.51435088,39.68881252,0
  -121.51847075,39.68564210,0
  -121.51847075,39.68035775,0
  -121.51984404,39.67507300,0
  -121.52259063,39.66978784,0
  -121.52671050,39.66555943,0
  -121.52945708,39.66027354,0
  -121.53632354,39.66027354,0
  -121.54181670,39.66344512,0
  -121.54730986,39.66555943,0
  -121.55280303,39.66133075,0
  -121.54868315,39.65815907,0
  -121.55005645,39.65392994,0
  -121.55554961,39.65075793,0
  -121.55966948,39.64547091,0
  -121.56653594,39.64335599,0
  -121.57340239,39.64335599,0
  -121.57477568,39.63806841,0
  -121.57477568,39.63278042,0
  -121.57889556,39.62854974,0
  -121.58576201,39.62854974,0
  -121.59125518,39.62431880,0
  -121.59674834,39.61902976,0
  -121.59949492,39.61479824,0
  -121.60224150,39.60950847,0
  -121.60636138,39.60421830,0
  -121.61185454,39.60104401,0
  -121.61460112,39.59575319,0
  -121.62146758,39.59681139,0
  -121.62421416,39.59257851,0
  -121.62696074,39.58728704,0
  -121.62833403,39.58199517,0
  -121.63108062,39.57776139,0
  -121.63382720,39.57246879,0
  -121.63245391,39.56717580,0
  -121.63794707,39.56717580,0
  -121.64481353,39.57141023,0
  -121.65167998,39.57564440,0
  -121.65167998,39.58093675,0
  -121.64893340,39.58517034,0
  -121.64344023,39.59046197,0
  -121.64069365,39.59469498,0
  -121.63520049,39.59892773,0
  -121.62833403,39.60316022,0
  -121.62284087,39.60527637,0
  -121.62146758,39.61056646,0
  -121.62009429,39.61585614,0
  -121.61872100,39.62114542,0
  -121.61597441,39.62643430,0
  -121.61597441,39.63172277,0
  -121.61322783,39.63701084,0
  -121.61185454,39.64229851,0
  -121.61322783,39.64758577,0
  -121.61322783,39.65287262,0
  -121.61185454,39.65710182,0
  -121.60910796,39.66238794,0
  -121.60636138,39.66767367,0
  -121.60361479,39.67190195,0
  -121.60773467,39.67190195,0
  -121.61322783,39.66767367,0
  -121.61872100,39.66555943,0
  -121.61872100,39.66027354,0
  -121.61872100,39.65498725,0
  -121.62146758,39.64970056,0
  -121.62146758,39.64441346,0
  -121.62009429,39.63912596,0
  -121.62146758,39.63383805,0
  -121.62421416,39.62960743,0
  -121.62558745,39.62431880,0
  -121.63245391,39.62326102,0
  -121.63794707,39.61797190,0
  -121.63932036,39.61268238,0
  -121.64618682,39.61056646,0
  -121.65305327,39.61056646,0
  -121.65991973,39.60950847,0
  -121.66678618,39.60950847,0
  -121.67365264,39.60845047,0
  -121.67914580,39.60421830,0
  -121.68463896,39.60210212,0
  -121.69150542,39.60633442,0
  -121.69699858,39.61056646,0
  -121.70386504,39.61585614,0
  -121.71073149,39.61797190,0
  -121.71210479,39.62326102,0
  -121.71897124,39.62537656,0
  -121.72446440,39.62431880,0
  -121.72583770,39.62960743,0
  -121.72995757,39.63278042,0
  -121.72858428,39.63806841,0
  -121.73407744,39.64335599,0
  -121.73957061,39.64758577,0
  -121.74094390,39.65287262,0
  -121.74369048,39.65710182,0
  -121.74781035,39.66133075,0
  -121.74506377,39.66661655,0
  -121.74094390,39.67084491,0
  -121.74231719,39.67612998,0
  -121.74506377,39.68141466,0
  -121.75055693,39.68458526,0
  -121.75605010,39.68669892,0
  -121.75605010,39.69198279,0
  -121.75605010,39.69726625,0
  -121.76291655,39.69832289,0
  -121.76291655,39.70254930,0
  </coordinates></LinearRing></outerBoundaryIs></Polygon>
  </Placemark></Document></kml>
