<?xml version="1.0" encoding="UTF-8"?>
<kml xmlns="http://www.opengis.net/kml/2.2">
  <Document><Placemark><name>US/Canadian Wildfires Fire Perimeter</name>
  <Style><LineStyle><width>3</width></LineStyle><PolyStyle><fill>0</fill></PolyStyle></Style>
  <Polygon><outerBoundaryIs><LinearRing><coordinates>
  -65.62304110,43.69444922,0
  -65.62029452,43.69643506,0
  -65.61686129,43.69643506,0
  -65.61342807,43.69643506,0
  -65.60999484,43.69444922,0
  -65.60724826,43.69345627,0
  -65.60381503,43.69345627,0
  -65.60106845,43.69494568,0
  -65.60038180,43.69742795,0
  -65.60038180,43.69991012,0
  -65.59969516,43.70239218,0
  -65.59694857,43.70388137,0
  -65.59351535,43.70338498,0
  -65.59008212,43.70338498,0
  -65.58664889,43.70338498,0
  -65.58390231,43.70586690,0
  -65.58115573,43.70685964,0
  -65.57772250,43.70586690,0
  -65.57428927,43.70586690,0
  -65.57085604,43.70586690,0
  -65.56742282,43.70586690,0
  -65.56467623,43.70735600,0
  -65.56467623,43.70983775,0
  -65.56398959,43.71231941,0
  -65.56124301,43.71430465,0
  -65.55780978,43.71480096,0
  -65.55437655,43.71430465,0
  -65.55162997,43.71380835,0
  -65.54819674,43.71281572,0
  -65.54476351,43.71182308,0
  -65.54201693,43.71033409,0
  -65.53927035,43.70884506,0
  -65.53721041,43.70685964,0
  -65.53377719,43.70685964,0
  -65.53034396,43.70735600,0
  -65.52691073,43.70685964,0
  -65.52347750,43.70685964,0
  -65.52004428,43.70834871,0
  -65.52004428,43.71083043,0
  -65.52141757,43.71331204,0
  -65.52141757,43.71579355,0
  -65.52073092,43.71827495,0
  -65.51867099,43.72026000,0
  -65.51661105,43.72274122,0
  -65.51317782,43.72274122,0
  -65.50974459,43.72323745,0
  -65.50631137,43.72323745,0
  -65.50356478,43.72472613,0
  -65.50150485,43.72671096,0
  -65.49807162,43.72770336,0
  -65.49463839,43.72770336,0
  -65.49120517,43.72770336,0
  -65.48777194,43.72770336,0
  -65.48433871,43.72720716,0
  -65.48090548,43.72571855,0
  -65.47747225,43.72571855,0
  -65.47541232,43.72422991,0
  -65.47266574,43.72224499,0
  -65.46991915,43.72026000,0
  -65.46785922,43.71877122,0
  -65.46442599,43.71678612,0
  -65.46099276,43.71529725,0
  -65.45893283,43.71281572,0
  -65.45549960,43.71231941,0
  -65.45206637,43.71182308,0
  -65.45000643,43.70983775,0
  -65.44725985,43.70785236,0
  -65.44382662,43.70636327,0
  -65.44108004,43.70487414,0
  -65.43764682,43.70388137,0
  -65.43558688,43.70189578,0
  -65.43352694,43.69991012,0
  -65.43009371,43.69891726,0
  -65.42666049,43.69891726,0
  -65.42322726,43.69891726,0
  -65.42048068,43.69742795,0
  -65.41704745,43.69742795,0
  -65.41361422,43.69693151,0
  -65.41086764,43.69544215,0
  -65.40812106,43.69345627,0
  -65.40468783,43.69345627,0
  -65.40125460,43.69345627,0
  -65.39782138,43.69345627,0
  -65.39438815,43.69295980,0
  -65.39164157,43.69196683,0
  -65.38889498,43.69047734,0
  -65.38546176,43.68849131,0
  -65.38202853,43.68799479,0
  -65.37859530,43.68799479,0
  -65.37516207,43.68799479,0
  -65.37172885,43.68849131,0
  -65.36829562,43.68849131,0
  -65.36623568,43.68700173,0
  -65.36280246,43.68650520,0
  -65.35936923,43.68650520,0
  -65.35662265,43.68799479,0
  -65.35318942,43.68948433,0
  -65.35044284,43.68898782,0
  -65.34769625,43.68749826,0
  -65.34426303,43.68551213,0
  -65.34220309,43.68302936,0
  -65.34220309,43.68054650,0
  -65.34288974,43.67806353,0
  -65.34288974,43.67558046,0
  -65.34014315,43.67409057,0
  -65.33670993,43.67409057,0
  -65.33327670,43.67508384,0
  -65.32984347,43.67508384,0
  -65.32641024,43.67558046,0
  -65.32503695,43.67309729,0
  -65.32435031,43.67061401,0
  -65.32503695,43.66813064,0
  -65.32572360,43.66564716,0
  -65.32778353,43.66366030,0
  -65.32847018,43.66117663,0
  -65.32778353,43.65869286,0
  -65.32709689,43.65620899,0
  -65.32572360,43.65422182,0
  -65.32572360,43.65173776,0
  -65.32709689,43.64975044,0
  -65.32778353,43.64726620,0
  -65.32984347,43.64478186,0
  -65.33121676,43.64229741,0
  -65.33396334,43.64030978,0
  -65.33396334,43.63782515,0
  -65.33259005,43.63534041,0
  -65.33190341,43.63335255,0
  -65.33396334,43.63136462,0
  -65.33739657,43.63086763,0
  -65.34082980,43.62987364,0
  -65.34151644,43.62738857,0
  -65.34288974,43.62490341,0
  -65.34426303,43.62241814,0
  -65.34426303,43.61993277,0
  -65.34426303,43.61744729,0
  -65.34288974,43.61496171,0
  -65.34151644,43.61247603,0
  -65.33808322,43.61197889,0
  -65.33464999,43.61048742,0
  -65.33190341,43.60899591,0
  -65.32847018,43.60899591,0
  -65.32503695,43.60899591,0
  -65.32160372,43.60750437,0
  -65.32160372,43.60501838,0
  -65.32366366,43.60302951,0
  -65.32641024,43.60203506,0
  -65.32984347,43.60253229,0
  -65.33327670,43.60253229,0
  -65.33670993,43.60153782,0
  -65.33945651,43.60004609,0
  -65.34220309,43.59805707,0
  -65.34563632,43.59656525,0
  -65.34906954,43.59656525,0
  -65.35250277,43.59706253,0
  -65.35593600,43.59855433,0
  -65.35799594,43.60054334,0
  -65.36142916,43.60104058,0
  -65.36417575,43.59954884,0
  -65.36486239,43.59706253,0
  -65.36554904,43.59457611,0
  -65.36486239,43.59208958,0
  -65.36142916,43.59059762,0
  -65.35868258,43.58811094,0
  -65.35524935,43.58711623,0
  -65.35181613,43.58711623,0
  -65.34906954,43.58562415,0
  -65.34769625,43.58363464,0
  -65.34700961,43.58114767,0
  -65.34769625,43.57866059,0
  -65.35044284,43.57766573,0
  -65.35387606,43.57766573,0
  -65.35730929,43.57766573,0
  -65.36074252,43.57716829,0
  -65.36417575,43.57667085,0
  -65.36692233,43.57517851,0
  -65.37035556,43.57418359,0
  -65.37378878,43.57269119,0
  -65.37653537,43.57070125,0
  -65.37859530,43.56871125,0
  -65.38202853,43.56721871,0
  -65.38546176,43.56771623,0
  -65.38889498,43.56771623,0
  -65.39232821,43.56672119,0
  -65.39576144,43.56771623,0
  -65.39850802,43.56920876,0
  -65.40194125,43.56920876,0
  -65.40537448,43.56771623,0
  -65.40880770,43.56771623,0
  -65.41155429,43.56920876,0
  -65.41224093,43.57169623,0
  -65.41018100,43.57368613,0
  -65.40743441,43.57567596,0
  -65.40400119,43.57617341,0
  -65.40262789,43.57866059,0
  -65.40194125,43.58114767,0
  -65.40262789,43.58363464,0
  -65.40400119,43.58612151,0
  -65.40743441,43.58612151,0
  -65.41086764,43.58562415,0
  -65.41292758,43.58363464,0
  -65.41636080,43.58462940,0
  -65.41910739,43.58612151,0
  -65.42185397,43.58811094,0
  -65.42322726,43.59059762,0
  -65.42528720,43.59258690,0
  -65.42666049,43.59507340,0
  -65.42872042,43.59706253,0
  -65.43215365,43.59706253,0
  -65.43490023,43.59557069,0
  -65.43490023,43.59308421,0
  -65.43764682,43.59159227,0
  -65.44108004,43.59208958,0
  -65.44451327,43.59308421,0
  -65.44794650,43.59358151,0
  -65.45069308,43.59507340,0
  -65.45412631,43.59606797,0
  -65.45755954,43.59606797,0
  -65.46099276,43.59507340,0
  -65.46099276,43.59258690,0
  -65.46099276,43.59010029,0
  -65.45961947,43.58761359,0
  -65.45687289,43.58612151,0
  -65.45687289,43.58363464,0
  -65.45549960,43.58114767,0
  -65.45275302,43.57965543,0
  -65.45137973,43.57766573,0
  -65.44931979,43.57517851,0
  -65.44931979,43.57269119,0
  -65.44931979,43.57020376,0
  -65.44931979,43.56771623,0
  -65.44931979,43.56522860,0
  -65.45000643,43.56274086,0
  -65.45275302,43.56075060,0
  -65.45549960,43.55876027,0
  -65.45824618,43.55676988,0
  -65.46167941,43.55627227,0
  -65.46511264,43.55627227,0
  -65.46854586,43.55627227,0
  -65.47197909,43.55676988,0
  -65.47541232,43.55726749,0
  -65.47884555,43.55776509,0
  -65.48227877,43.55826268,0
  -65.48571200,43.55876027,0
  -65.48914523,43.55826268,0
  -65.49189181,43.55676988,0
  -65.49463839,43.55477942,0
  -65.49601168,43.55278890,0
  -65.49944491,43.55129596,0
  -65.50287814,43.55079831,0
  -65.50493808,43.54880765,0
  -65.50631137,43.54631924,0
  -65.50974459,43.54582154,0
  -65.51317782,43.54731462,0
  -65.51661105,43.54731462,0
  -65.52004428,43.54582154,0
  -65.52347750,43.54582154,0
  -65.52691073,43.54731462,0
  -65.52828402,43.54980299,0
  -65.53171725,43.55079831,0
  -65.53446383,43.55229126,0
  -65.53446383,43.55477942,0
  -65.53309054,43.55726749,0
  -65.53103060,43.55925786,0
  -65.52828402,43.56075060,0
  -65.52691073,43.56323842,0
  -65.52553744,43.56572613,0
  -65.52279086,43.56672119,0
  -65.52004428,43.56821374,0
  -65.51661105,43.56821374,0
  -65.51386447,43.56970626,0
  -65.51111788,43.57119874,0
  -65.51043124,43.57368613,0
  -65.51180453,43.57617341,0
  -65.51455111,43.57716829,0
  -65.51798434,43.57716829,0
  -65.52141757,43.57766573,0
  -65.52416415,43.57965543,0
  -65.52759738,43.58065026,0
  -65.53103060,43.58065026,0
  -65.53446383,43.58214247,0
  -65.53652377,43.58413202,0
  -65.53927035,43.58562415,0
  -65.54270358,43.58761359,0
  -65.54476351,43.59010029,0
  -65.54819674,43.59109495,0
  -65.55162997,43.59109495,0
  -65.55506320,43.59159227,0
  -65.55712313,43.59407881,0
  -65.55986972,43.59507340,0
  -65.56124301,43.59755980,0
  -65.56398959,43.60004609,0
  -65.56536288,43.60203506,0
  -65.56604953,43.60452117,0
  -65.56742282,43.60650998,0
  -65.56810946,43.60899591,0
  -65.56879611,43.61148173,0
  -65.57016940,43.61396745,0
  -65.57016940,43.61645307,0
  -65.57154269,43.61844149,0
  -65.57360263,43.62042985,0
  -65.57703585,43.62092693,0
  -65.58046908,43.62142400,0
  -65.58252902,43.62341226,0
  -65.58252902,43.62589748,0
  -65.58252902,43.62838261,0
  -65.58321566,43.63086763,0
  -65.58321566,43.63335255,0
  -65.58252902,43.63583737,0
  -65.58252902,43.63832208,0
  -65.58115573,43.64080669,0
  -65.58115573,43.64329120,0
  -65.58252902,43.64527874,0
  -65.58252902,43.64776306,0
  -65.58184237,43.65024728,0
  -65.58184237,43.65273140,0
  -65.58321566,43.65521541,0
  -65.58458895,43.65769933,0
  -65.58458895,43.66018314,0
  -65.58527560,43.66266684,0
  -65.58733554,43.66465373,0
  -65.59008212,43.66614386,0
  -65.59351535,43.66614386,0
  -65.59694857,43.66763395,0
  -65.59763522,43.67011735,0
  -65.59763522,43.67260064,0
  -65.59763522,43.67508384,0
  -65.59832186,43.67756693,0
  -65.60175509,43.67856013,0
  -65.60381503,43.68054650,0
  -65.60724826,43.68203623,0
  -65.61068148,43.68253280,0
  -65.61274142,43.68501558,0
  -65.61617465,43.68600867,0
  -65.61960787,43.68700173,0
  -65.62029452,43.68948433,0
  -65.62166781,43.69196683,0
  -65.62304110,43.69345627,0
  -65.62304110,43.69444922,0
  </coordinates></LinearRing></outerBoundaryIs></Polygon>
  </Placemark></Document></kml>
