<?xml version="1.0" encoding="UTF-8"?>
<kml xmlns="http://www.opengis.net/kml/2.2">
  <Document><Placemark><name>Etosha National Park Fire Perimeter</name>
  <Style><LineStyle><width>3</width></LineStyle><PolyStyle><fill>0</fill></PolyStyle></Style>
  <Polygon><outerBoundaryIs><LinearRing><coordinates>
  14.50479736,-19.01233371,0
  14.51578369,-19.00454327,0
  14.52127686,-18.99415546,0
  14.52127686,-18.98116977,0
  14.52402344,-18.96818307,0
  14.53226318,-18.96039057,0
  14.54324951,-18.95259770,0
  14.55698242,-18.95259770,0
  14.57071533,-18.95259770,0
  14.58444824,-18.95259770,0
  14.59543457,-18.96039057,0
  14.58994141,-18.96558561,0
  14.57895508,-18.97078049,0
  14.56796875,-18.97857251,0
  14.56522217,-18.99155840,0
  14.56522217,-19.00454327,0
  14.56522217,-19.01752713,0
  14.57346191,-19.02791349,0
  14.58719482,-19.03050998,0
  14.60092773,-19.03310643,0
  14.61466064,-19.03310643,0
  14.62839355,-19.03310643,0
  14.64212646,-19.03050998,0
  14.65036621,-19.02012378,0
  14.66135254,-19.01233371,0
  14.67233887,-19.00714013,0
  14.68332520,-18.99675247,0
  14.69431152,-18.98896130,0
  14.69705811,-18.97597521,0
  14.70529785,-18.96818307,0
  14.71628418,-18.96298811,0
  14.73001709,-18.96298811,0
  14.74375000,-18.96298811,0
  14.75748291,-18.96298811,0
  14.77121582,-18.96298811,0
  14.78494873,-18.96039057,0
  14.79593506,-18.95519537,0
  14.80966797,-18.95519537,0
  14.82065430,-18.95000000,0
  14.83164063,-18.94220665,0
  14.83438721,-18.92921692,0
  14.83438721,-18.91622618,0
  14.83438721,-18.90323443,0
  14.83438721,-18.89024167,0
  14.82340088,-18.88244553,0
  14.81241455,-18.87724790,0
  14.79868164,-18.87724790,0
  14.78494873,-18.87724790,0
  14.77121582,-18.87724790,0
  14.75748291,-18.87724790,0
  14.74924316,-18.87724790,0
  14.73551025,-18.87464903,0
  14.72177734,-18.87464903,0
  14.70804443,-18.87464903,0
  14.69705811,-18.87984674,0
  14.68607178,-18.89024167,0
  14.67233887,-18.89024167,0
  14.66135254,-18.89803744,0
  14.65311279,-18.90843125,0
  14.64212646,-18.90323443,0
  14.63114014,-18.89543889,0
  14.63114014,-18.88244553,0
  14.63114014,-18.86945116,0
  14.63114014,-18.85645578,0
  14.62839355,-18.84345939,0
  14.63114014,-18.83046200,0
  14.63114014,-18.81746361,0
  14.63114014,-18.80446420,0
  14.62564697,-18.79406396,0
  14.61466064,-18.78366307,0
  14.61191406,-18.77066106,0
  14.61191406,-18.75765804,0
  14.61191406,-18.74465403,0
  14.60642090,-18.73425009,0
  14.59818115,-18.72384552,0
  14.58994141,-18.71344030,0
  14.58994141,-18.70043288,0
  14.57895508,-18.69262795,0
  14.57895508,-18.67961893,0
  14.57895508,-18.66660891,0
  14.57895508,-18.65359789,0
  14.57071533,-18.64318836,0
  14.57071533,-18.63538079,0
  14.57071533,-18.62236738,0
  14.57071533,-18.60935298,0
  14.57071533,-18.59633758,0
  14.55972900,-18.58852786,0
  14.56796875,-18.58071778,0
  14.57895508,-18.57551087,0
  14.59268799,-18.57551087,0
  14.60367432,-18.56770020,0
  14.60642090,-18.55468161,0
  14.60642090,-18.54166204,0
  14.61191406,-18.53124566,0
  14.61466064,-18.51822430,0
  14.62290039,-18.51041101,0
  14.63388672,-18.50259736,0
  14.64761963,-18.49999273,0
  14.65585938,-18.49217861,0
  14.65860596,-18.47915427,0
  14.65860596,-18.46612895,0
  14.65860596,-18.45310264,0
  14.64761963,-18.44528638,0
  14.64761963,-18.43225848,0
  14.65860596,-18.42444128,0
  14.66959229,-18.42183546,0
  14.68332520,-18.41922961,0
  14.69156494,-18.40880579,0
  14.70255127,-18.40098752,0
  14.70529785,-18.38795627,0
  14.70529785,-18.37492404,0
  14.70529785,-18.36189082,0
  14.70529785,-18.34885662,0
  14.69980469,-18.33842855,0
  14.69980469,-18.32539258,0
  14.69980469,-18.31235562,0
  14.70529785,-18.30192535,0
  14.70529785,-18.28888663,0
  14.70529785,-18.27584693,0
  14.70529785,-18.26280625,0
  14.70529785,-18.24976459,0
  14.69980469,-18.23933056,0
  14.71079102,-18.23150462,0
  14.71903076,-18.22106949,0
  14.72452393,-18.21063374,0
  14.72452393,-18.19758816,0
  14.72177734,-18.18454161,0
  14.72727051,-18.17410367,0
  14.73825684,-18.16888447,0
  14.75198975,-18.16888447,0
  14.76572266,-18.17149409,0
  14.77945557,-18.17149409,0
  14.79318848,-18.17149409,0
  14.80692139,-18.16627480,0
  14.80966797,-18.15322591,0
  14.80966797,-18.14017605,0
  14.81516113,-18.12973546,0
  14.81516113,-18.11668384,0
  14.81516113,-18.10363125,0
  14.81516113,-18.09057768,0
  14.81516113,-18.07752315,0
  14.81516113,-18.06446764,0
  14.80692139,-18.05402254,0
  14.82065430,-18.05402254,0
  14.83438721,-18.05402254,0
  14.84812012,-18.05402254,0
  14.85635986,-18.05924517,0
  14.85635986,-18.07230106,0
  14.85635986,-18.08535599,0
  14.85635986,-18.09840994,0
  14.85635986,-18.11146292,0
  14.85635986,-18.12451492,0
  14.85086670,-18.13495583,0
  14.84537354,-18.14539611,0
  14.84537354,-18.15844559,0
  14.84537354,-18.17149409,0
  14.85361328,-18.18193219,0
  14.86734619,-18.18454161,0
  14.88107910,-18.18454161,0
  14.89206543,-18.18715100,0
  14.90305176,-18.19497893,0
  14.90579834,-18.20802470,0
  14.91678467,-18.21585169,0
  14.92502441,-18.22367833,0
  14.93601074,-18.23150462,0
  14.94699707,-18.24193912,0
  14.94974365,-18.25237300,0
  14.94699707,-18.26280625,0
  14.93601074,-18.27063078,0
  14.92502441,-18.27845495,0
  14.91953125,-18.28888663,0
  14.91129150,-18.29931769,0
  14.90305176,-18.30974811,0
  14.89206543,-18.31496309,0
  14.87833252,-18.31757052,0
  14.87009277,-18.32799985,0
  14.85910645,-18.33582143,0
  14.85086670,-18.34624966,0
  14.85086670,-18.35928406,0
  14.84262695,-18.36971087,0
  14.83164063,-18.37492404,0
  14.81790771,-18.37753056,0
  14.80692139,-18.38534990,0
  14.79593506,-18.39577513,0
  14.79318848,-18.40619974,0
  14.78494873,-18.41662371,0
  14.78220215,-18.42965279,0
  14.78220215,-18.44268088,0
  14.78220215,-18.45570798,0
  14.79318848,-18.46612895,0
  14.80417480,-18.47394426,0
  14.80417480,-18.48175922,0
  14.80142822,-18.49478335,0
  14.80142822,-18.50780650,0
  14.80142822,-18.52082865,0
  14.80142822,-18.53384982,0
  14.80966797,-18.54426603,0
  14.80966797,-18.55728541,0
  14.80966797,-18.57030379,0
  14.81516113,-18.58071778,0
  14.82340088,-18.59113114,0
  14.83164063,-18.60154386,0
  14.84537354,-18.60154386,0
  14.85910645,-18.60154386,0
  14.87283936,-18.60154386,0
  14.88657227,-18.60154386,0
  14.89481201,-18.59113114,0
  14.90030518,-18.57811435,0
  14.90030518,-18.56509656,0
  14.90579834,-18.55728541,0
  14.91403809,-18.54426603,0
  14.92227783,-18.54166204,0
  14.93051758,-18.55207778,0
  14.93051758,-18.56509656,0
  14.93051758,-18.57811435,0
  14.93326416,-18.59113114,0
  14.93326416,-18.60414694,0
  14.94425049,-18.61455886,0
  14.95798340,-18.61455886,0
  14.97171631,-18.61716174,0
  14.98544922,-18.61716174,0
  14.99918213,-18.61716174,0
  15.01291504,-18.61716174,0
  15.02664795,-18.61716174,0
  15.03763428,-18.60935298,0
  15.04312744,-18.59894074,0
  15.04587402,-18.58852786,0
  15.05136719,-18.57551087,0
  15.05136719,-18.56249288,0
  15.05411377,-18.55207778,0
  15.05960693,-18.53905800,0
  15.05960693,-18.52603724,0
  15.05960693,-18.51301548,0
  15.06510010,-18.50259736,0
  15.07333984,-18.49217861,0
  15.08432617,-18.48436413,0
  15.09531250,-18.48175922,0
  15.10904541,-18.48175922,0
  15.12277832,-18.47915427,0
  15.13101807,-18.46873409,0
  15.13101807,-18.45570798,0
  15.13101807,-18.44268088,0
  15.13101807,-18.42965279,0
  15.12277832,-18.41922961,0
  15.11453857,-18.40880579,0
  15.10629883,-18.40098752,0
  15.11179199,-18.39056260,0
  15.12277832,-18.38274349,0
  15.12552490,-18.36971087,0
  15.13101807,-18.35928406,0
  15.12827148,-18.34624966,0
  15.13925781,-18.33842855,0
  15.14475098,-18.32799985,0
  15.15024414,-18.31757052,0
  15.15848389,-18.30714057,0
  15.15848389,-18.29410224,0
  15.16672363,-18.28627877,0
  15.17496338,-18.27323887,0
  15.18594971,-18.26541447,0
  15.19144287,-18.26019800,0
  15.20242920,-18.26802264,0
  15.20517578,-18.28106293,0
  15.21341553,-18.28888663,0
  15.22440186,-18.29670998,0
  15.23813477,-18.29670998,0
  15.25186768,-18.29670998,0
  15.26560059,-18.29410224,0
  15.27933350,-18.29410224,0
  15.29031982,-18.28888663,0
  15.30130615,-18.28367087,0
  15.31503906,-18.28367087,0
  15.32877197,-18.28106293,0
  15.33701172,-18.27063078,0
  15.34799805,-18.26280625,0
  15.35623779,-18.27323887,0
  15.35623779,-18.28106293,0
  15.34799805,-18.29149446,0
  15.34799805,-18.30453298,0
  15.34799805,-18.31757052,0
  15.34799805,-18.33060708,0
  15.35074463,-18.34364266,0
  15.36173096,-18.35146354,0
  15.37546387,-18.35146354,0
  15.38919678,-18.35146354,0
  15.40018311,-18.35928406,0
  15.40567627,-18.36710422,0
  15.40018311,-18.37753056,0
  15.38919678,-18.38534990,0
  15.38095703,-18.39577513,0
  15.37271729,-18.40619974,0
  15.37271729,-18.41922961,0
  15.37271729,-18.43225848,0
  15.37271729,-18.44528638,0
  15.37546387,-18.45831328,0
  15.38919678,-18.46352377,0
  15.40292969,-18.46352377,0
  15.41391602,-18.46612895,0
  15.41940918,-18.47654929,0
  15.41391602,-18.48696899,0
  15.40292969,-18.49217861,0
  15.39194336,-18.49999273,0
  15.38919678,-18.51301548,0
  15.38919678,-18.52603724,0
  15.38919678,-18.53905800,0
  15.39194336,-18.55207778,0
  15.40018311,-18.55988917,0
  15.40567627,-18.57030379,0
  15.41666260,-18.57811435,0
  15.42764893,-18.58332118,0
  15.43314209,-18.59373438,0
  15.43314209,-18.60674998,0
  15.43314209,-18.61976458,0
  15.43588867,-18.63277819,0
  15.43588867,-18.64579080,0
  15.44687500,-18.65359789,0
  15.46060791,-18.65620018,0
  15.47434082,-18.65620018,0
  15.48807373,-18.65620018,0
  15.50180664,-18.65359789,0
  15.51279297,-18.65099557,0
  15.52377930,-18.65620018,0
  15.52652588,-18.66921099,0
  15.51553955,-18.67701700,0
  15.51279297,-18.69002622,0
  15.51279297,-18.70303444,0
  15.51279297,-18.71604166,0
  15.51828613,-18.72644672,0
  15.51828613,-18.73945214,0
  15.52377930,-18.74985575,0
  15.53476563,-18.75505732,0
  15.54849854,-18.75505732,0
  15.56223145,-18.75505732,0
  15.57596436,-18.75505732,0
  15.58695068,-18.74725491,0
  15.59244385,-18.73685114,0
  15.59793701,-18.72384552,0
  15.60617676,-18.71604166,0
  15.61441650,-18.70563597,0
  15.62265625,-18.69522963,0
  15.63089600,-18.68482266,0
  15.64188232,-18.67701700,0
  15.65012207,-18.66660891,0
  15.66110840,-18.65880242,0
  15.66110840,-18.64579080,0
  15.66110840,-18.63277819,0
  15.67209473,-18.62497015,0
  15.68033447,-18.63538079,0
  15.69132080,-18.64318836,0
  15.69956055,-18.65359789,0
  15.71329346,-18.65620018,0
  15.72702637,-18.65620018,0
  15.73801270,-18.66400679,0
  15.74899902,-18.67181304,0
  15.76273193,-18.67181304,0
  15.77646484,-18.67181304,0
  15.78745117,-18.66660891,0
  15.79569092,-18.65620018,0
  15.80118408,-18.64579080,0
  15.81491699,-18.64058588,0
  15.82590332,-18.64318836,0
  15.83963623,-18.64579080,0
  15.85336914,-18.64579080,0
  15.86710205,-18.64579080,0
  15.88083496,-18.64579080,0
  15.89456787,-18.64579080,0
  15.90830078,-18.64318836,0
  15.91654053,-18.63277819,0
  15.92203369,-18.62236738,0
  15.93302002,-18.61455886,0
  15.93576660,-18.60154386,0
  15.93576660,-18.58852786,0
  15.94400635,-18.58071778,0
  15.95499268,-18.57290735,0
  15.96323242,-18.56249288,0
  15.96323242,-18.54947390,0
  15.96323242,-18.53645393,0
  15.97421875,-18.52864147,0
  15.98520508,-18.53645393,0
  15.99069824,-18.54686999,0
  15.99069824,-18.55988917,0
  15.99893799,-18.57030379,0
  16.00992432,-18.57551087,0
  16.01816406,-18.58592454,0
  16.01816406,-18.59894074,0
  16.00992432,-18.60935298,0
  16.00168457,-18.61716174,0
  15.99893799,-18.63017555,0
  15.99344482,-18.64058588,0
  15.99344482,-18.65359789,0
  15.98795166,-18.66400679,0
  15.97971191,-18.67441504,0
  15.97147217,-18.68482266,0
  15.96048584,-18.69002622,0
  15.94949951,-18.69522963,0
  15.93851318,-18.70563597,0
  15.93027344,-18.71344030,0
  15.91928711,-18.72124427,0
  15.90830078,-18.72904788,0
  15.90006104,-18.73945214,0
  15.88907471,-18.74985575,0
  15.88358154,-18.75765804,0
  15.87534180,-18.77066106,0
  15.86984863,-18.78106275,0
  15.86435547,-18.79146380,0
  15.85611572,-18.80186420,0
  15.85062256,-18.81226397,0
  15.84512939,-18.82266309,0
  15.84238281,-18.83566108,0
  15.83688965,-18.84605875,0
  15.83688965,-18.85905494,0
  15.83688965,-18.87205011,0
  15.83963623,-18.88504428,0
  15.84238281,-18.89543889,0
  15.83963623,-18.90583286,0
  15.82864990,-18.91362791,0
  15.81766357,-18.90583286,0
  15.80942383,-18.89543889,0
  15.79569092,-18.89284030,0
  15.78195801,-18.89284030,0
  15.76822510,-18.89284030,0
  15.75449219,-18.89284030,0
  15.74625244,-18.88244553,0
  15.73251953,-18.87984674,0
  15.71878662,-18.87984674,0
  15.70505371,-18.87984674,0
  15.69132080,-18.88504428,0
  15.68582764,-18.89543889,0
  15.68033447,-18.90583286,0
  15.66934814,-18.91362791,0
  15.65561523,-18.91362791,0
  15.64188232,-18.91362791,0
  15.62814941,-18.91102960,0
  15.61441650,-18.91102960,0
  15.60068359,-18.91102960,0
  15.58695068,-18.91102960,0
  15.57321777,-18.91362791,0
  15.56772461,-18.92661885,0
  15.55673828,-18.93441293,0
  15.54849854,-18.94220665,0
  15.53751221,-18.95259770,0
  15.52652588,-18.95779299,0
  15.51553955,-18.96818307,0
  15.50729980,-18.97597521,0
  15.50180664,-18.98896130,0
  15.50180664,-19.00194638,0
  15.50180664,-19.01493044,0
  15.50180664,-19.02791349,0
  15.50455322,-19.04089553,0
  15.51553955,-19.04868426,0
  15.52927246,-19.04868426,0
  15.54300537,-19.04868426,0
  15.55399170,-19.05387655,0
  15.56497803,-19.06166467,0
  15.57047119,-19.07204827,0
  15.57047119,-19.07983554,0
  15.55948486,-19.08502685,0
  15.54575195,-19.08502685,0
  15.53201904,-19.08502685,0
  15.52103271,-19.09281351,0
  15.51828613,-19.10579046,0
  15.51828613,-19.11876640,0
  15.51828613,-19.13174131,0
  15.51828613,-19.13952577,0
  15.51004639,-19.14990448,0
  15.49631348,-19.14990448,0
  15.48258057,-19.14990448,0
  15.46884766,-19.14990448,0
  15.45511475,-19.14990448,0
  15.44412842,-19.15509359,0
  15.43314209,-19.14990448,0
  15.42215576,-19.14471521,0
  15.40842285,-19.14730987,0
  15.39468994,-19.14730987,0
  15.38370361,-19.14212051,0
  15.36997070,-19.14212051,0
  15.35623779,-19.14212051,0
  15.34250488,-19.14212051,0
  15.33151855,-19.14730987,0
  15.32327881,-19.15768809,0
  15.32327881,-19.17065994,0
  15.31229248,-19.17844257,0
  15.30405273,-19.18622483,0
  15.29031982,-19.18881883,0
  15.27658691,-19.18881883,0
  15.26560059,-19.19400671,0
  15.25461426,-19.19919444,0
  15.24362793,-19.20438199,0
  15.22989502,-19.20697571,0
  15.21890869,-19.21216302,0
  15.20517578,-19.21216302,0
  15.19144287,-19.21216302,0
  15.17770996,-19.21216302,0
  15.16672363,-19.20697571,0
  15.15573730,-19.20178824,0
  15.14200439,-19.19919444,0
  15.12827148,-19.19919444,0
  15.11453857,-19.19919444,0
  15.10080566,-19.19919444,0
  15.08981934,-19.19400671,0
  15.07608643,-19.19400671,0
  15.06235352,-19.19400671,0
  15.05136719,-19.19919444,0
  15.03763428,-19.19919444,0
  15.02390137,-19.19919444,0
  15.01291504,-19.20438199,0
  15.00192871,-19.20956939,0
  14.98819580,-19.21216302,0
  14.97720947,-19.21735017,0
  14.96896973,-19.22772398,0
  14.96896973,-19.24069032,0
  14.96622314,-19.25106265,0
  14.95798340,-19.26143433,0
  14.94425049,-19.26402714,0
  14.93051758,-19.26402714,0
  14.91678467,-19.26402714,0
  14.90579834,-19.25884147,0
  14.89206543,-19.25624857,0
  14.87833252,-19.25624857,0
  14.86734619,-19.25106265,0
  14.86185303,-19.23809713,0
  14.85086670,-19.23031733,0
  14.83713379,-19.23031733,0
  14.82340088,-19.23031733,0
  14.80966797,-19.23291064,0
  14.79868164,-19.24069032,0
  14.79044189,-19.25106265,0
  14.78220215,-19.26143433,0
  14.77396240,-19.26402714,0
  14.76297607,-19.25365563,0
  14.74924316,-19.25365563,0
  14.73551025,-19.25365563,0
  14.72177734,-19.25365563,0
  14.70804443,-19.25365563,0
  14.69431152,-19.25365563,0
  14.68057861,-19.25624857,0
  14.66959229,-19.26143433,0
  14.65585938,-19.26143433,0
  14.64212646,-19.25884147,0
  14.63663330,-19.24587657,0
  14.62839355,-19.23809713,0
  14.61740723,-19.22772398,0
  14.60642090,-19.22253716,0
  14.59543457,-19.21475662,0
  14.58719482,-19.20438199,0
  14.57620850,-19.19660060,0
  14.57346191,-19.18363078,0
  14.57071533,-19.17065994,0
  14.55972900,-19.16287695,0
  14.55423584,-19.15249906,0
  14.54874268,-19.13952577,0
  14.54874268,-19.12655147,0
  14.54874268,-19.11357614,0
  14.54874268,-19.10059980,0
  14.54599609,-19.08762244,0
  14.53500977,-19.07983554,0
  14.52951660,-19.06945243,0
  14.52402344,-19.05906867,0
  14.51578369,-19.04868426,0
  14.50479736,-19.04089553,0
  14.50479736,-19.02791349,0
  14.50479736,-19.01493044,0
  14.50479736,-19.01233371,0
  </coordinates></LinearRing></outerBoundaryIs></Polygon>
  </Placemark></Document></kml>
